      2.10          N: GNSS NAV DATA                        RINEX VERSION / TYPE
fic2rin                                 02/11/2021 00:17:20 PGM / RUN BY / DATE
                                                            END OF HEADER
20 21  2 10 17 59 44.0 5.247574299574e-04-2.273736754432e-13 0.000000000000e+00
    4.000000000000e+00-1.370625000000e+02 4.840201613825e-09 2.961260611568e+00
   -6.968155503273e-06 5.869995453395e-03 7.037073373795e-06 5.153678129196e+03
    3.239840000000e+05-9.685754776001e-08-6.629121229394e-01 5.587935447693e-08
    9.371275354205e-01 2.280937500000e+02 2.854752808142e+00-8.241414716575e-09
   -1.789360248322e-10 1.000000000000e+00 2.144000000000e+03 0.000000000000e+00
    2.400000000000e+00 0.000000000000e+00-8.381903171539e-09 4.000000000000e+00
    3.168000000000e+05 4.000000000000e+00
15 21  2 10 17 59 44.0-1.703137531877e-04 2.614797267597e-12 0.000000000000e+00
    3.700000000000e+01-2.093750000000e+00 5.058782147153e-09-1.507237059593e+00
   -4.284083843231e-08 1.303040317725e-02 1.065805554390e-05 5.153566755295e+03
    3.239840000000e+05 2.849847078323e-07 4.128018158354e-01 1.862645149231e-08
    9.291290161930e-01 1.498750000000e+02 9.661507080550e-01-8.091408468212e-09
    6.435982370213e-10 1.000000000000e+00 2.144000000000e+03 0.000000000000e+00
    2.400000000000e+00 0.000000000000e+00-1.071020960808e-08 3.700000000000e+01
    3.168000000000e+05 4.000000000000e+00
 2 21  2 10 18  0  0.0-5.754716694355e-04-3.979039320257e-12 0.000000000000e+00
    4.900000000000e+01 1.693750000000e+01 4.570547524507e-09-2.462593039970e+00
    1.033768057823e-06 2.039130637422e-02-7.022172212601e-07 5.153613187790e+03
    3.240000000000e+05 2.682209014893e-07-1.641187971484e+00 7.264316082001e-08
    9.616676833762e-01 3.922500000000e+02-1.548087307547e+00-8.127124241632e-09
    1.228622605635e-10 1.000000000000e+00 2.144000000000e+03 0.000000000000e+00
    2.400000000000e+00 0.000000000000e+00-1.769512891769e-08 4.900000000000e+01
    3.168000000000e+05 4.000000000000e+00
 5 21  2 10 18  0  0.0-3.334227949381e-05-1.023181539495e-12 0.000000000000e+00
    7.000000000000e+00-1.307187500000e+02 4.360895934534e-09 9.814545647221e-02
   -6.761401891708e-06 5.983942188323e-03 7.823109626770e-06 5.153823503494e+03
    3.240000000000e+05-3.539025783539e-08-5.560370275969e-01 1.061707735062e-07
    9.554387669111e-01 2.262812500000e+02 8.849525518830e-01-8.135696027253e-09
   -1.296482575132e-10 1.000000000000e+00 2.144000000000e+03 0.000000000000e+00
    2.400000000000e+00 0.000000000000e+00-1.117587089539e-08 7.000000000000e+00
    3.168000000000e+05 4.000000000000e+00
 6 21  2 10 18  0  0.0-3.186054527760e-06 1.023181539495e-12 0.000000000000e+00
    1.700000000000e+01 7.125000000000e+00 4.315536902291e-09-2.361614102821e+00
    3.892928361893e-07 2.301929518580e-03 1.769512891769e-07 5.153703420639e+03
    3.240000000000e+05 8.009374141693e-08-1.567780115946e+00 8.568167686462e-08
    9.823627793757e-01 3.889062500000e+02-1.084590899347e+00-8.300345742717e-09
   -1.178620522847e-11 1.000000000000e+00 2.144000000000e+03 0.000000000000e+00
    2.400000000000e+00 0.000000000000e+00 3.725290298462e-09 1.700000000000e+01
    3.168000000000e+05 4.000000000000e+00
 3 21  2 10 18  0  0.0-7.949722930789e-05-1.011812855722e-11 0.000000000000e+00
    5.100000000000e+01-1.500000000000e+02 4.023739033453e-09 2.428265071833e+00
   -7.664784789085e-06 3.257383592427e-03 8.556991815567e-06 5.153664434433e+03
    3.240000000000e+05 5.587935447693e-09-5.206145553545e-01-5.960464477539e-08
    9.685257409275e-01 2.181250000000e+02 8.546346601754e-01-7.881756878239e-09
   -1.110760553350e-10 1.000000000000e+00 2.144000000000e+03 0.000000000000e+00
    2.400000000000e+00 0.000000000000e+00 1.862645149231e-09 5.100000000000e+01
    3.168000000000e+05 4.000000000000e+00
 4 21  2 10 18  0  0.0-1.792907714844e-04-2.728484105319e-12 0.000000000000e+00
    1.270000000000e+02-2.218750000000e+00 4.437327689652e-09-9.946892744466e-01
   -1.713633537292e-07 1.114446902648e-03 1.036748290062e-05 5.153591758728e+03
    3.240000000000e+05 3.352761268616e-08 5.590114428761e-01 4.284083843231e-08
    9.605811375458e-01 1.764062500000e+02-3.018045770772e+00-7.831397637718e-09
    7.389593520517e-10 1.000000000000e+00 2.144000000000e+03 0.000000000000e+00
    2.400000000000e+00 0.000000000000e+00-4.190951585770e-09 6.390000000000e+02
    3.168000000000e+05 4.000000000000e+00
16 21  2 10 18  0  0.0-2.781436778605e-04-5.684341886081e-12 0.000000000000e+00
    1.500000000000e+01 2.393750000000e+01 4.129814880509e-09 3.940601148484e-01
    1.490116119385e-06 1.217314356472e-02 1.093186438084e-05 5.153648277283e+03
    3.240000000000e+05 3.725290298462e-09 2.710580727550e+00 1.396983861923e-07
    9.752166249783e-01 1.743437500000e+02 6.491679929555e-01-7.807468069526e-09
   -7.225300962787e-10 1.000000000000e+00 2.144000000000e+03 0.000000000000e+00
    2.400000000000e+00 0.000000000000e+00-1.024454832077e-08 1.500000000000e+01
    3.168000000000e+05 4.000000000000e+00
 9 21  2 10 18  0  0.0-3.216308541596e-04-3.637978807092e-12 0.000000000000e+00
    1.600000000000e+01-7.843750000000e+00 4.598762985509e-09-7.917400566370e-02
   -6.444752216339e-07 1.958755543455e-03 1.069344580173e-05 5.153570472717e+03
    3.240000000000e+05 4.470348358154e-08 5.090415845167e-01 2.793967723846e-08
    9.534402628197e-01 1.686875000000e+02 1.815389339304e+00-7.947116743597e-09
    6.918145311378e-10 1.000000000000e+00 2.144000000000e+03 0.000000000000e+00
    2.400000000000e+00 0.000000000000e+00 1.396983861923e-09 1.600000000000e+01
    3.168000000000e+05 4.000000000000e+00
24 21  2 10 18  0  0.0 2.493150532246e-06-5.684341886081e-13 0.000000000000e+00
    1.900000000000e+01 5.000000000000e+00 5.724524163695e-09-2.369474108576e+00
    1.173466444016e-07 1.091396843549e-02 4.297122359276e-06 5.153605813980e+03
    3.240000000000e+05 2.030283212662e-07 1.505595671360e+00-1.639127731323e-07
    9.349177727922e-01 2.819687500000e+02 7.298058485773e-01-8.531783954476e-09
    1.907222300607e-10 1.000000000000e+00 2.144000000000e+03 0.000000000000e+00
    2.400000000000e+00 0.000000000000e+00 2.793967723846e-09 1.900000000000e+01
    3.168000000000e+05 4.000000000000e+00
13 21  2 10 18  0  0.0 9.571155533195e-05 4.320099833421e-12 0.000000000000e+00
    1.900000000000e+01 1.068750000000e+01 4.368039089218e-09-1.165230416844e+00
    6.724148988724e-07 4.912791308016e-03 9.687617421150e-06 5.153683065414e+03
    3.240000000000e+05 5.401670932770e-08 6.559721902519e-01 4.470348358154e-08
    9.682115192904e-01 1.971250000000e+02 1.029232942540e+00-7.838540792401e-09
    6.793140104410e-10 1.000000000000e+00 2.144000000000e+03 0.000000000000e+00
    2.400000000000e+00 0.000000000000e+00-1.117587089539e-08 1.900000000000e+01
    3.168000000000e+05 4.000000000000e+00
10 21  2 10 18  0  0.0-5.862116813660e-05-8.185452315956e-12 0.000000000000e+00
    5.300000000000e+01-1.356875000000e+02 4.118028675281e-09 1.534048123079e+00
   -7.020309567451e-06 6.482891505584e-03 8.849427103996e-06 5.153678928375e+03
    3.240000000000e+05-8.195638656616e-08-5.235430584127e-01 7.450580596924e-08
    9.684223594327e-01 2.125312500000e+02-2.595816030157e+00-7.947831059065e-09
   -2.117945363783e-10 1.000000000000e+00 2.144000000000e+03 0.000000000000e+00
    2.400000000000e+00 0.000000000000e+00 2.328306436539e-09 5.300000000000e+01
    3.168000000000e+05 4.000000000000e+00
 8 21  2 10 18  0  0.0-9.811948984861e-06-1.364242052659e-12 0.000000000000e+00
    8.300000000000e+01 1.438125000000e+02 4.119457306218e-09-4.915479633114e-01
    7.364898920059e-06 6.180466967635e-03 8.469447493553e-06 5.153555780411e+03
    3.240000000000e+05 1.378357410431e-07-2.632860781997e+00-8.381903171539e-08
    9.684337687308e-01 2.219687500000e+02-3.251211960885e-02-7.974260731396e-09
    1.071473202588e-10 1.000000000000e+00 2.144000000000e+03 0.000000000000e+00
    2.400000000000e+00 0.000000000000e+00 5.122274160385e-09 8.300000000000e+01
    3.168000000000e+05 4.000000000000e+00
32 21  2 10 18  0  0.0 1.825345680118e-05 1.364242052659e-12 0.000000000000e+00
    1.500000000000e+01 7.281250000000e+00 4.599120143243e-09 2.252062217031e-01
    3.371387720108e-07 4.562402144074e-03 1.059845089912e-05 5.153637317657e+03
    3.240000000000e+05-3.725290298462e-08 5.186115996034e-01 1.005828380585e-07
    9.574512564994e-01 1.755625000000e+02-2.441024499954e+00-7.966760418978e-09
    6.782425372384e-10 1.000000000000e+00 2.144000000000e+03 0.000000000000e+00
    2.400000000000e+00 0.000000000000e+00 4.656612873077e-10 1.500000000000e+01
    3.168000000000e+05 4.000000000000e+00
25 21  2 10 18  0  0.0 7.781106978655e-05 7.730704965070e-12 0.000000000000e+00
    1.800000000000e+01 9.062500000000e-01 4.352324148913e-09 1.925152088643e+00
   -1.210719347000e-07 9.794603800401e-03 1.067481935024e-05 5.153674200058e+03
    3.240000000000e+05-1.713633537292e-07 2.619666871595e+00-1.303851604462e-07
    9.623479797818e-01 1.755312500000e+02 9.386294929317e-01-7.773180927044e-09
   -6.300262431219e-10 1.000000000000e+00 2.144000000000e+03 0.000000000000e+00
    2.400000000000e+00 0.000000000000e+00 5.587935447693e-09 1.800000000000e+01
    3.168000000000e+05 4.000000000000e+00
26 21  2 10 18  0  0.0 4.296610131860e-05 5.570655048359e-12 0.000000000000e+00
    1.700000000000e+01 3.937500000000e+00 4.959135139313e-09 1.298753745575e+00
    4.898756742477e-07 5.726056057028e-03 1.014582812786e-05 5.153752649307e+03
    3.240000000000e+05 8.195638656616e-08 2.579581187053e+00 6.891787052155e-08
    9.432727802861e-01 1.736562500000e+02 2.690822216575e-01-8.119266771480e-09
   -7.514598727486e-10 1.000000000000e+00 2.144000000000e+03 0.000000000000e+00
    2.400000000000e+00 0.000000000000e+00 6.984919309616e-09 1.700000000000e+01
    3.168000000000e+05 4.000000000000e+00
